CTC1_L_00205016-03
1 37667U 26451LW  26037.47803241  .00000000  00000+0  00000-0 0  9993
2 37667  40.0000 180.0000 0000000   0.0000   0.0000 13.42494869    15
CTC1_L_00205016-04
1 37668U 26894EM  26037.47803241  .00000000  00000+0  00000-0 0  9995
2 37668  40.0000 180.0000 0000000   0.0000  90.0000 13.42494869    15
CTC1_L_00205017-01
1 37669U 23285VG  26037.47803241  .00000000  00000+0  00000-0 0  9997
2 37669  40.0000 192.0000 0000000   0.0000 192.0000 13.42494869    12
CTC1_L_00205017-02
1 37670U 25439ME  26037.47803241  .00000000  00000+0  00000-0 0  9992
2 37670  40.0000 192.0000 0000000   0.0000 282.0000 13.42494869    14
CTC1_L_00205017-03
1 37671U 26865BA  26037.47803241  .00000000  00000+0  00000-0 0  9997
2 37671  40.0000 192.0000 0000000   0.0000  12.0000 13.42494869    16
CTC1_L_00205017-04
1 37672U 23623OC  26037.47803241  .00000000  00000+0  00000-0 0  9997
2 37672  40.0000 192.0000 0000000   0.0000 102.0000 13.42494869    17
CTC1_L_00205018-01
1 37673U 26131MI  26037.47803241  .00000000  00000+0  00000-0 0  9995
2 37673  40.0000 204.0000 0000000   0.0000 204.0000 13.42494869    15
CTC1_L_00205018-02
1 37674U 22904RO  26037.47803241  .00000000  00000+0  00000-0 0  9990
2 37674  40.0000 204.0000 0000000   0.0000 294.0000 13.42494869    15
CTC1_L_00205018-03
1 37675U 22789RT  26037.47803241  .00000000  00000+0  00000-0 0  9992
2 37675  40.0000 204.0000 0000000   0.0000  24.0000 13.42494869    17
CTC1_L_00205018-04
1 37676U 25334HO  26037.47803241  .00000000  00000+0  00000-0 0  9992
2 37676  40.0000 204.0000 0000000   0.0000 114.0000 13.42494869    18
CTC1_L_00205019-01
1 37677U 26057UU  26037.47803241  .00000000  00000+0  00000-0 0  9996
2 37677  40.0000 216.0000 0000000   0.0000 216.0000 13.42494869    15
CTC1_L_00205019-02
1 37678U 26869GH  26037.47803241  .00000000  00000+0  00000-0 0  9998
2 37678  40.0000 216.0000 0000000   0.0000 306.0000 13.42494869    16
CTC1_L_00205019-03
1 37679U 24514PO  26037.47803241  .00000000  00000+0  00000-0 0  9994
2 37679  40.0000 216.0000 0000000   0.0000  36.0000 13.42494869    17
CTC1_L_00205019-04
1 37680U 23647HN  26037.47803241  .00000000  00000+0  00000-0 0  9992
2 37680  40.0000 216.0000 0000000   0.0000 126.0000 13.42494869    19
CTC1_L_00205020-01
1 37681U 22834BH  26037.47803241  .00000000  00000+0  00000-0 0  9990
2 37681  40.0000 228.0000 0000000   0.0000 228.0000 13.42494869    16
CTC1_L_00205020-02
1 37682U 26029AS  26037.47803241  .00000000  00000+0  00000-0 0  9991
2 37682  40.0000 228.0000 0000000   0.0000 318.0000 13.42494869    17
CTC1_L_00205020-03
1 37683U 24915X   26037.47803241  .00000000  00000+0  00000-0 0  9994
2 37683  40.0000 228.0000 0000000   0.0000  48.0000 13.42494869    18
CTC1_L_00205020-04
1 37684U 22380HS  26037.47803241  .00000000  00000+0  00000-0 0  9999
2 37684  40.0000 228.0000 0000000   0.0000 138.0000 13.42494869    19
CTC1_L_00205021-01
1 37685U 26739CN  26037.47803241  .00000000  00000+0  00000-0 0  9992
2 37685  40.0000 240.0000 0000000   0.0000 240.0000 13.42494869    18
CTC1_L_00205021-02
1 37686U 24954ZB  26037.47803241  .00000000  00000+0  00000-0 0  9990
2 37686  40.0000 240.0000 0000000   0.0000 330.0000 13.42494869    19
CTC1_L_00205021-03
1 37687U 25159BA  26037.47803241  .00000000  00000+0  00000-0 0  9999
2 37687  40.0000 240.0000 0000000   0.0000  60.0000 13.42494869    10
CTC1_L_00205021-04
1 37688U 26689ZS  26037.47803241  .00000000  00000+0  00000-0 0  9999
2 37688  40.0000 240.0000 0000000   0.0000 150.0000 13.42494869    11
CTC1_L_00205022-01
1 37689U 22828RY  26037.47803241  .00000000  00000+0  00000-0 0  9991
2 37689  40.0000 252.0000 0000000   0.0000 252.0000 13.42494869    18
CTC1_L_00205022-02
1 37690U 25400YK  26037.47803241  .00000000  00000+0  00000-0 0  9992
2 37690  40.0000 252.0000 0000000   0.0000 342.0000 13.42494869    10
CTC1_L_00205022-03
1 37691U 26328PE  26037.47803241  .00000000  00000+0  00000-0 0  9993
2 37691  40.0000 252.0000 0000000   0.0000  72.0000 13.42494869    11
CTC1_L_00205022-04
1 37692U 22816VV  26037.47803241  .00000000  00000+0  00000-0 0  9992
2 37692  40.0000 252.0000 0000000   0.0000 162.0000 13.42494869    12
CTC1_L_00205023-01
1 37693U 24642UV  26037.47803241  .00000000  00000+0  00000-0 0  9992
2 37693  40.0000 264.0000 0000000   0.0000 264.0000 13.42494869    19
CTC1_L_00205023-02
1 37694U 22584ZL  26037.47803241  .00000000  00000+0  00000-0 0  9996
2 37694  40.0000 264.0000 0000000   0.0000 354.0000 13.42494869    10
CTC1_L_00205023-03
1 37695U 24407EF  26037.47803241  .00000000  00000+0  00000-0 0  9993
2 37695  40.0000 264.0000 0000000   0.0000  84.0000 13.42494869    11
CTC1_L_00205023-04
1 37696U 24210YN  26037.47803241  .00000000  00000+0  00000-0 0  9996
2 37696  40.0000 264.0000 0000000   0.0000 174.0000 13.42494869    12
CTC1_L_00205024-01
1 37697U 23885HM  26037.47803241  .00000000  00000+0  00000-0 0  9994
2 37697  40.0000 276.0000 0000000   0.0000 276.0000 13.42494869    19
CTC1_L_00205024-02
1 37698U 22712PG  26037.47803241  .00000000  00000+0  00000-0 0  9993
2 37698  40.0000 276.0000 0000000   0.0000   6.0000 13.42494869    11
CTC1_L_00205024-03
1 37699U 23302NI  26037.47803241  .00000000  00000+0  00000-0 0  9990
2 37699  40.0000 276.0000 0000000   0.0000  96.0000 13.42494869    11
CTC1_L_00205024-04
1 37700U 24333HL  26037.47803241  .00000000  00000+0  00000-0 0  9998
2 37700  40.0000 276.0000 0000000   0.0000 186.0000 13.42494869    14
CTC1_L_00205025-01
1 37701U 23118PL  26037.47803241  .00000000  00000+0  00000-0 0  9999
2 37701  40.0000 288.0000 0000000   0.0000 288.0000 13.42494869    11
CTC1_L_00205025-02
1 37702U 25128MA  26037.47803241  .00000000  00000+0  00000-0 0  9993
2 37702  40.0000 288.0000 0000000   0.0000  18.0000 13.42494869    13
CTC1_L_00205025-03
1 37703U 25105SD  26037.47803241  .00000000  00000+0  00000-0 0  9999
2 37703  40.0000 288.0000 0000000   0.0000 108.0000 13.42494869    14
CTC1_L_00205025-04
1 37704U 26029NB  26037.47803241  .00000000  00000+0  00000-0 0  9996
2 37704  40.0000 288.0000 0000000   0.0000 198.0000 13.42494869    14
CTC1_L_00205026-01
1 37705U 24870OJ  26037.47803241  .00000000  00000+0  00000-0 0  9999
2 37705  40.0000 300.0000 0000000   0.0000 300.0000 13.42494869    15
CTC1_L_00205026-02
1 37706U 25145OH  26037.47803241  .00000000  00000+0  00000-0 0  9996
2 37706  40.0000 300.0000 0000000   0.0000  30.0000 13.42494869    16
CTC1_L_00205026-03
1 37707U 22660QH  26037.47803241  .00000000  00000+0  00000-0 0  9996
2 37707  40.0000 300.0000 0000000   0.0000 120.0000 13.42494869    17
CTC1_L_00205026-04
1 37708U 26867CO  26037.47803241  .00000000  00000+0  00000-0 0  9990
2 37708  40.0000 300.0000 0000000   0.0000 210.0000 13.42494869    18
CTC1_L_00205027-01
1 37709U 22357MU  26037.47803241  .00000000  00000+0  00000-0 0  9991
2 37709  40.0000 312.0000 0000000   0.0000 312.0000 13.42494869    15
CTC1_L_00205027-02
1 37710U 26109UJ  26037.47803241  .00000000  00000+0  00000-0 0  9992
2 37710  40.0000 312.0000 0000000   0.0000  42.0000 13.42494869    17
CTC1_L_00205027-03
1 37711U 24972MH  26037.47803241  .00000000  00000+0  00000-0 0  9999
2 37711  40.0000 312.0000 0000000   0.0000 132.0000 13.42494869    18
CTC1_L_00205027-04
1 37712U 25597SR  26037.47803241  .00000000  00000+0  00000-0 0  9994
2 37712  40.0000 312.0000 0000000   0.0000 222.0000 13.42494869    19
CTC1_L_00205028-01
1 37713U 26305JB  26037.47803241  .00000000  00000+0  00000-0 0  9993
2 37713  40.0000 324.0000 0000000   0.0000 324.0000 13.42494869    16
CTC1_L_00205028-02
1 37714U 25422HA  26037.47803241  .00000000  00000+0  00000-0 0  9993
2 37714  40.0000 324.0000 0000000   0.0000  54.0000 13.42494869    17
CTC1_L_00205028-03
1 37715U 26417ME  26037.47803241  .00000000  00000+0  00000-0 0  9999
2 37715  40.0000 324.0000 0000000   0.0000 144.0000 13.42494869    18
CTC1_L_00205028-04
1 37716U 26442EE  26037.47803241  .00000000  00000+0  00000-0 0  9998
2 37716  40.0000 324.0000 0000000   0.0000 234.0000 13.42494869    19
CTC1_L_00205029-01
1 37717U 23844BK  26037.47803241  .00000000  00000+0  00000-0 0  9992
2 37717  40.0000 336.0000 0000000   0.0000 336.0000 13.42494869    16
CTC1_L_00205029-02
1 37718U 22354NN  26037.47803241  .00000000  00000+0  00000-0 0  9998
2 37718  40.0000 336.0000 0000000   0.0000  66.0000 13.42494869    17
CTC1_L_00205029-03
1 37719U 22557KV  26037.47803241  .00000000  00000+0  00000-0 0  9994
2 37719  40.0000 336.0000 0000000   0.0000 156.0000 13.42494869    18
CTC1_L_00205029-04
1 37720U 22189Y   26037.47803241  .00000000  00000+0  00000-0 0  9997
2 37720  40.0000 336.0000 0000000   0.0000 246.0000 13.42494869    10
CTC1_L_00205030-01
1 37721U 24638PS  26037.47803241  .00000000  00000+0  00000-0 0  9999
2 37721  40.0000 348.0000 0000000   0.0000 348.0000 13.42494869    17
CTC1_L_00205030-02
1 37722U 25421ZM  26037.47803241  .00000000  00000+0  00000-0 0  9991
2 37722  40.0000 348.0000 0000000   0.0000  78.0000 13.42494869    18
CTC1_L_00205030-03
1 37723U 24134BZ  26037.47803241  .00000000  00000+0  00000-0 0  9992
2 37723  40.0000 348.0000 0000000   0.0000 168.0000 13.42494869    19
CTC1_L_00205030-04
1 37724U 26170AF  26037.47803241  .00000000  00000+0  00000-0 0  9995
2 37724  40.0000 348.0000 0000000   0.0000 258.0000 13.42494869    10
